{
  "type": "FeatureCollection",
  "features": [
    {
      "type": "Feature",
      "properties": {
        "norad_id": 32183,
        "name": "FENGYUN 1C DEB",
        "group": "fengyun-1c-debris",
        "lat": 42.11746841329416,
        "lon": -135.79142984038998,
        "alt_km": 845.6600066260862,
        "timestamp": "2025-12-10T23:33:13.102625+00:00",
        "meta_object_name": "FENGYUN 1C DEB",
        "meta_object_id": "1999-025CUD",
        "meta_epoch": "2025-12-09T02:37:54.780384",
        "meta_mean_motion": 14.10071301,
        "meta_eccentricity": 0.0042849,
        "meta_inclination": 98.7133,
        "meta_ra_of_asc_node": 34.4259,
        "meta_arg_of_pericenter": 71.0034,
        "meta_mean_anomaly": 289.5773,
        "meta_ephemeris_type": 0,
        "meta_classification_type": "U",
        "meta_norad_cat_id": 32183,
        "meta_element_set_no": 999,
        "meta_rev_at_epoch": 72713,
        "meta_bstar": 0.00087644324,
        "meta_mean_motion_dot": 1.519e-05,
        "meta_mean_motion_ddot": 0,
        "tle_line1": "1 32183U 99025CUD 25343.10966181  .00001519  00000+0  87644-3 0  9998",
        "tle_line2": "2 32183  98.7133  34.4259 0042849  71.0034 289.5773 14.10071301727138"
      },
      "geometry": {
        "type": "Point",
        "coordinates": [
          -135.79142984038998,
          42.11746841329416
        ]
      }
    },
    {
      "type": "Feature",
      "properties": {
        "norad_id": 32184,
        "name": "FENGYUN 1C DEB",
        "group": "fengyun-1c-debris",
        "lat": -25.941088009756907,
        "lon": -59.871899142469736,
        "alt_km": 482.89475799086085,
        "timestamp": "2025-12-10T23:33:13.102634+00:00",
        "meta_object_name": "FENGYUN 1C DEB",
        "meta_object_id": "1999-025CUE",
        "meta_epoch": "2025-12-10T14:52:52.645728",
        "meta_mean_motion": 15.43380948,
        "meta_eccentricity": 0.00713712,
        "meta_inclination": 98.1195,
        "meta_ra_of_asc_node": 123.7078,
        "meta_arg_of_pericenter": 355.6809,
        "meta_mean_anomaly": 4.3812,
        "meta_ephemeris_type": 0,
        "meta_classification_type": "U",
        "meta_norad_cat_id": 32184,
        "meta_element_set_no": 999,
        "meta_rev_at_epoch": 98371,
        "meta_bstar": 0.0022436977,
        "meta_mean_motion_dot": 0.00111287,
        "meta_mean_motion_ddot": 0,
        "tle_line1": "1 32184U 99025CUE 25344.62005377  .00111287  00000+0  22437-2 0  9990",
        "tle_line2": "2 32184  98.1195 123.7078 0071371 355.6809   4.3812 15.43380948983717"
      },
      "geometry": {
        "type": "Point",
        "coordinates": [
          -59.871899142469736,
          -25.941088009756907
        ]
      }
    },
    {
      "type": "Feature",
      "properties": {
        "norad_id": 32185,
        "name": "FENGYUN 1C DEB",
        "group": "fengyun-1c-debris",
        "lat": -36.17684056174814,
        "lon": -162.43808131695332,
        "alt_km": 501.20061822091157,
        "timestamp": "2025-12-10T23:33:13.102643+00:00",
        "meta_object_name": "FENGYUN 1C DEB",
        "meta_object_id": "1999-025CUF",
        "meta_epoch": "2025-12-09T20:33:08.704800",
        "meta_mean_motion": 15.03004796,
        "meta_eccentricity": 0.0163456,
        "meta_inclination": 98.904,
        "meta_ra_of_asc_node": 189.6861,
        "meta_arg_of_pericenter": 24.4993,
        "meta_mean_anomaly": 336.3884,
        "meta_ephemeris_type": 0,
        "meta_classification_type": "U",
        "meta_norad_cat_id": 32185,
        "meta_element_set_no": 999,
        "meta_rev_at_epoch": 94972,
        "meta_bstar": 0.0039720026,
        "meta_mean_motion_dot": 0.00072177,
        "meta_mean_motion_ddot": 0,
        "tle_line1": "1 32185U 99025CUF 25343.85635075  .00072177  00000+0  39720-2 0  9996",
        "tle_line2": "2 32185  98.9040 189.6861 0163456  24.4993 336.3884 15.03004796949727"
      },
      "geometry": {
        "type": "Point",
        "coordinates": [
          -162.43808131695332,
          -36.17684056174814
        ]
      }
    },
    {
      "type": "Feature",
      "properties": {
        "norad_id": 32186,
        "name": "FENGYUN 1C DEB",
        "group": "fengyun-1c-debris",
        "lat": -22.40920802600375,
        "lon": 39.45539896844085,
        "alt_km": 1113.7992237415092,
        "timestamp": "2025-12-10T23:33:13.102652+00:00",
        "meta_object_name": "FENGYUN 1C DEB",
        "meta_object_id": "1999-025CUG",
        "meta_epoch": "2025-12-09T09:24:32.827968",
        "meta_mean_motion": 13.76498707,
        "meta_eccentricity": 0.02746783,
        "meta_inclination": 99.6097,
        "meta_ra_of_asc_node": 33.8435,
        "meta_arg_of_pericenter": 209.4403,
        "meta_mean_anomaly": 173.7978,
        "meta_ephemeris_type": 0,
        "meta_classification_type": "U",
        "meta_norad_cat_id": 32186,
        "meta_element_set_no": 999,
        "meta_rev_at_epoch": 62564,
        "meta_bstar": 0.0015629135,
        "meta_mean_motion_dot": 1.972e-05,
        "meta_mean_motion_ddot": 0,
        "tle_line1": "1 32186U 99025CUG 25343.39204662  .00001972  00000+0  15629-2 0  9997",
        "tle_line2": "2 32186  99.6097  33.8435 0274678 209.4403 173.7978 13.76498707625641"
      },
      "geometry": {
        "type": "Point",
        "coordinates": [
          39.45539896844085,
          -22.40920802600375
        ]
      }
    },
    {
      "type": "Feature",
      "properties": {
        "norad_id": 32187,
        "name": "FENGYUN 1C DEB",
        "group": "fengyun-1c-debris",
        "lat": -52.611448875938486,
        "lon": 76.6804645144233,
        "alt_km": 1276.7047340993386,
        "timestamp": "2025-12-10T23:33:13.102661+00:00",
        "meta_object_name": "FENGYUN 1C DEB",
        "meta_object_id": "1999-025CUH",
        "meta_epoch": "2025-12-09T10:48:10.080288",
        "meta_mean_motion": 13.50492866,
        "meta_eccentricity": 0.02943458,
        "meta_inclination": 99.5055,
        "meta_ra_of_asc_node": 62.5525,
        "meta_arg_of_pericenter": 154.1368,
        "meta_mean_anomaly": 269.9368,
        "meta_ephemeris_type": 0,
        "meta_classification_type": "U",
        "meta_norad_cat_id": 32187,
        "meta_element_set_no": 999,
        "meta_rev_at_epoch": 66214,
        "meta_bstar": 0.00085725391,
        "meta_mean_motion_dot": 6.79e-06,
        "meta_mean_motion_ddot": 0,
        "tle_line1": "1 32187U 99025CUH 25343.45011667  .00000679  00000+0  85725-3 0  9994",
        "tle_line2": "2 32187  99.5055  62.5525 0294345 154.1368 269.9368 13.50492866662142"
      },
      "geometry": {
        "type": "Point",
        "coordinates": [
          76.6804645144233,
          -52.611448875938486
        ]
      }
    },
    {
      "type": "Feature",
      "properties": {
        "norad_id": 32191,
        "name": "FENGYUN 1C DEB",
        "group": "fengyun-1c-debris",
        "lat": -54.6470721933054,
        "lon": 53.57328875150582,
        "alt_km": 840.6293634924978,
        "timestamp": "2025-12-10T23:33:13.102670+00:00",
        "meta_object_name": "FENGYUN 1C DEB",
        "meta_object_id": "1999-025CUM",
        "meta_epoch": "2025-12-07T21:40:40.928736",
        "meta_mean_motion": 14.25144424,
        "meta_eccentricity": 0.00936775,
        "meta_inclination": 98.7071,
        "meta_ra_of_asc_node": 38.0439,
        "meta_arg_of_pericenter": 200.4354,
        "meta_mean_anomaly": 159.3067,
        "meta_ephemeris_type": 0,
        "meta_classification_type": "U",
        "meta_norad_cat_id": 32191,
        "meta_element_set_no": 999,
        "meta_rev_at_epoch": 64432,
        "meta_bstar": 0.0020420613,
        "meta_mean_motion_dot": 4.976e-05,
        "meta_mean_motion_ddot": 0,
        "tle_line1": "1 32191U 99025CUM 25341.90325149  .00004976  00000+0  20421-2 0  9995",
        "tle_line2": "2 32191  98.7071  38.0439 0093677 200.4354 159.3067 14.25144424644328"
      },
      "geometry": {
        "type": "Point",
        "coordinates": [
          53.57328875150582,
          -54.6470721933054
        ]
      }
    },
    {
      "type": "Feature",
      "properties": {
        "norad_id": 32192,
        "name": "FENGYUN 1C DEB",
        "group": "fengyun-1c-debris",
        "lat": -9.049846139979262,
        "lon": -142.61132861659635,
        "alt_km": 1091.8599813244255,
        "timestamp": "2025-12-10T23:33:13.102679+00:00",
        "meta_object_name": "FENGYUN 1C DEB",
        "meta_object_id": "1999-025CUN",
        "meta_epoch": "2025-12-10T02:45:21.500352",
        "meta_mean_motion": 13.82509568,
        "meta_eccentricity": 0.01815944,
        "meta_inclination": 98.6529,
        "meta_ra_of_asc_node": 215.2024,
        "meta_arg_of_pericenter": 169.561,
        "meta_mean_anomaly": 190.9397,
        "meta_ephemeris_type": 0,
        "meta_classification_type": "U",
        "meta_norad_cat_id": 32192,
        "meta_element_set_no": 999,
        "meta_rev_at_epoch": 92676,
        "meta_bstar": 0.00038665557,
        "meta_mean_motion_dot": 4.37e-06,
        "meta_mean_motion_ddot": 0,
        "tle_line1": "1 32192U 99025CUN 25344.11483218  .00000437  00000+0  38666-3 0  9993",
        "tle_line2": "2 32192  98.6529 215.2024 0181594 169.5610 190.9397 13.82509568926765"
      },
      "geometry": {
        "type": "Point",
        "coordinates": [
          -142.61132861659635,
          -9.049846139979262
        ]
      }
    }
  ]
}